ONEWEB-0395             
1 50475U 21132G   26166.56480939 -.00000106  00000+0 -33588-3 0  9993
2 50475  87.8887  21.3904 0002024  89.0138 271.1221 13.11419351215503
ONEWEB-0396             
1 50476U 21132H   26166.49795415  .00000116  00000+0  26108-3 0  9993
2 50476  87.9169 335.7907 0001946  87.6496 272.4859 13.18685421221414
ONEWEB-0397             
1 50477U 21132J   26166.51313209  .00000076  00000+0  15996-3 0  9992
2 50477  87.9169 335.7878 0001868  84.7913 275.3432 13.18685506221397
ONEWEB-0398             
1 50478U 21132K   26166.60888552 -.00000092  00000+0 -29406-3 0  9992
2 50478  87.8894  21.3720 0001949  94.5340 265.6011 13.11414838215400
ONEWEB-0399             
1 50479U 21132L   26166.59533647  .00000433  00000+0  11855-2 0  9998
2 50479  87.8894  21.3856 0002157  75.1562 284.9805 13.11414878215391
ONEWEB-0400             
1 50480U 21132M   26166.49121507  .00000096  00000+0  21194-3 0  9990
2 50480  87.9170 335.7818 0001924  97.6893 262.4458 13.18686111221387
ONEWEB-0401             
1 50481U 21132N   26166.46086086  .00000010  00000+0 -70912-5 0  9991
2 50481  87.9171 335.7851 0001635  87.7264 272.4055 13.18685354221389
ONEWEB-0402             
1 50482U 21132P   26166.49965224  .00000040  00000+0  67613-4 0  9990
2 50482  87.9167 335.7667 0001550  79.5727 280.5580 13.18685965221414
ONEWEB-0403             
1 50483U 21132Q   26166.52493400  .00000030  00000+0  43389-4 0  9990
2 50483  87.9168 335.7859 0001989  90.3201 269.8159 13.18685310221374
ONEWEB-0404             
1 50484U 21132R   26166.57668696  .00000403  00000+0  11009-2 0  9993
2 50484  87.8890  21.3878 0002144  83.2692 276.8680 13.11418393215484
ONEWEB-0405             
1 50485U 21132S   26166.53842969  .00000003  00000+0 -24508-4 0  9994
2 50485  87.9173 335.7678 0001999 105.5677 254.5676 13.18686863221771
ONEWEB-0406             
1 50486U 21132T   26166.45411764  .00000066  00000+0  13413-3 0  9991
2 50486  87.9165 335.8011 0002343  86.4840 273.6561 13.18685415221393
ONEWEB-0407             
1 50487U 21132U   26166.52327044 -.00000955  00000+0 -24547-2 0  9995
2 50487  87.9169 335.7792 0001568  95.6750 264.4561 13.18675293221349
ONEWEB-0409             
1 50488U 21132V   26166.57498179  .00000374  00000+0  10201-2 0  9994
2 50488  87.8894  21.3762 0002119  86.3128 273.8242 13.11419477215377
ONEWEB-0412             
1 50489U 21132W   26166.51144335  .00000008  00000+0 -12218-4 0  9998
2 50489  87.9166 335.7902 0001643  84.3979 275.7340 13.18685147221432
ONEWEB-0413             
1 50490U 21132X   26166.51652121  .00001941  00000+0  48902-2 0  9990
2 50490  87.9157 335.7881 0001542  89.7176 270.4133 13.18676016221376
ONEWEB-0414             
1 50491U 21132Y   26166.50133254  .00000015  00000+0  43086-5 0  9993
2 50491  87.9170 335.7726 0001836  86.4491 273.6851 13.18685473221403
ONEWEB-0417             
1 50492U 21132Z   26166.50976105  .00000076  00000+0  15878-3 0  9997
2 50492  87.9160 335.7908 0002087  90.7847 269.3525 13.18685806221384
ONEWEB-0418             
1 50493U 21132AA  26166.51972729 -.00000667  00000+0 -17242-2 0  9991
2 50493  87.9171 335.7883 0002089  86.1025 274.0346 13.18689663221444
ONEWEB-0419             
1 50494U 21132AB  26166.53831306  .00000017  00000+0  96667-5 0  9997
2 50494  87.9170 335.7841 0002103  96.7917 263.3454 13.18666132221360
ONEWEB-0420             
1 50495U 21132AC  26166.50301413  .00000072  00000+0  14895-3 0  9998
2 50495  87.9160 335.7943 0001674  95.5002 264.6321 13.18685776221358
ONEWEB-0421             
1 50496U 21132AD  26166.49626956  .00000067  00000+0  13780-3 0  9995
2 50496  87.9165 335.7931 0001817  80.7193 279.4144 13.18685295221394
ONEWEB-0424             
1 50497U 21132AE  26166.45749110  .00000017  00000+0  95654-5 0  9997
2 50497  87.9168 335.7988 0002049 100.6716 259.4647 13.18685125221412
ONEWEB-0426             
1 50498U 21132AF  26166.49204599  .00000042  00000+0  75022-4 0  9993
2 50498  87.9169 335.7829 0002299  77.4653 282.6737 13.18688857221363
ONEWEB-0427             
1 50499U 21132AG  26166.53168194 -.00000031  00000+0 -11107-3 0  9992
2 50499  87.9172 335.7640 0002039  89.8134 270.3232 13.18685213221392
ONEWEB-0429             
1 50500U 21132AH  26166.51819183  .00000079  00000+0  16718-3 0  9997
2 50500  87.9162 335.7912 0001722  93.5828 266.5501 13.18685890221360
ONEWEB-0430             
1 50501U 21132AJ  26166.50638614 -.00000033  00000+0 -11710-3 0  9994
2 50501  87.9163 335.7919 0001786 100.6714 259.4619 13.18686139221406
ONEWEB-0432             
1 50502U 21132AK  26166.47181555  .00000056  00000+0  11092-3 0  9994
2 50502  87.9169 335.7755 0002133 108.9041 251.2322 13.17155017221352
ONEWEB-0440             
1 50503U 21132AL  26166.52661978  .00000041  00000+0  72135-4 0  9993
2 50503  87.9170 335.7838 0001577  85.2751 274.8561 13.18685516221352
ONEWEB-0450             
1 50504U 21132AM  26166.52002012 -.00000036  00000+0 -12447-3 0  9997
2 50504  87.9159 335.7905 0001669  96.2025 263.9297 13.18685637221385
